{"type": "FeatureCollection", "features": [ {"type": "Feature", "properties": {"norad_id": 62339, "name": "GPS BIII-7  (PRN 01)", "group": "gps-ops", "lat": -14.187240378313286, "lon": 171.93042588754946, "alt_km": 20210.866047197258, "timestamp": "2025-12-13T15:35:12.365612+00:00", "meta": {"OBJECT_NAME": "GPS BIII-7  (PRN 01)", "OBJECT_ID": "2024-242A", "EPOCH": "2025-12-10T14:03:42.090048", "MEAN_MOTION": 2.00567746, "ECCENTRICITY": 0.0012131, "INCLINATION": 54.9242, "RA_OF_ASC_NODE": 341.8267, "ARG_OF_PERICENTER": 344.331, "MEAN_ANOMALY": 161.0631, "EPHEMERIS_TYPE": 0, "CLASSIFICATION_TYPE": "U", "NORAD_CAT_ID": 62339, "ELEMENT_SET_NO": 999, "REV_AT_EPOCH": 747, "BSTAR": 0, "MEAN_MOTION_DOT": -9e-07, "MEAN_MOTION_DDOT": 0}, "tle": {"line1": "1 62339U 24242A   25344.58590382 -.00000090  00000+0  00000+0 0  9993", "line2": "2 62339  54.9242 341.8267 0012131 344.3310 161.0631  2.00567746  7471"}}, "geometry": {"type": "Point", "coordinates": [171.93042588754946, -14.187240378313286]}}, {"type": "Feature", "properties": {"norad_id": 64202, "name": "GPS BIII-8  (PRN 21)", "group": "gps-ops", "lat": 21.818871307581382, "lon": 54.82935211873823, "alt_km": 20177.250106787007, "timestamp": "2025-12-13T15:35:12.365624+00:00", "meta": {"OBJECT_NAME": "GPS BIII-8  (PRN 21)", "OBJECT_ID": "2025-116A", "EPOCH": "2025-12-12T15:31:54.991200", "MEAN_MOTION": 2.00558315, "ECCENTRICITY": 0.00055942, "INCLINATION": 55.1057, "RA_OF_ASC_NODE": 38.6443, "ARG_OF_PERICENTER": 307.9268, "MEAN_ANOMALY": 75.3197, "EPHEMERIS_TYPE": 0, "CLASSIFICATION_TYPE": "U", "NORAD_CAT_ID": 64202, "ELEMENT_SET_NO": 999, "REV_AT_EPOCH": 413, "BSTAR": 0, "MEAN_MOTION_DOT": -9.8e-07, "MEAN_MOTION_DDOT": 0}, "tle": {"line1": "1 64202U 25116A   25346.64716425 -.00000098  00000+0  00000+0 0  9990", "line2": "2 64202  55.1057  38.6443 0005594 307.9268  75.3197  2.00558315  4134"}}, "geometry": {"type": "Point", "coordinates": [54.82935211873823, 21.818871307581382]}}]}